{"data":[{"barometer":{"hg":29.97,"hpa":1015.0,"kpa":101.49,"mb":1014.92},"clouds":[{"code":"CLR","text":"Clear skies"}],"conditions":[{"code":"MIFG","text":"Shallow Fog"}],"dewpoint":{"celsius":10,"fahrenheit":50},"elevation":{"feet":256,"meters":78},"flight_category":"VFR","humidity":{"percent":94},"icao":"EGTK","observed":"2022-10-13T17:50Z","raw_text":"EGTK 131750Z 24003KT 9000 MIFG NSC 11/10 Q1015","station":{"geometry":{"coordinates":[-1.32,51.836899],"type":"Point"},"location":"Kidlington, GB","name":"Oxford (Kidlington) Airport","type":"Airport"},"temperature":{"celsius":11,"fahrenheit":52},"visibility":{"meters":"9,000","meters_float":9000.0,"miles":"5.59","miles_float":5.59},"wind":{"degrees":240,"speed_kph":6,"speed_kts":3,"speed_mph":3,"speed_mps":2}}],"results":1}